CTC1_L_00278001-01
1 13536U 26705DH  26070.40834491  .00000000  00000+0  00000-0 0  9995
2 13536  85.0000   0.0000 0000000   0.0000   0.0000 15.28598846    10
CTC1_L_00278001-02
1 13537U 23005DG  26070.40834491  .00000000  00000+0  00000-0 0  9996
2 13537  85.0000   0.0000 0000000   0.0000  90.0000 15.28598846    10
CTC1_L_00278001-03
1 13538U 24119XV  26070.40834491  .00000000  00000+0  00000-0 0  9994
2 13538  85.0000   0.0000 0000000   0.0000 180.0000 15.28598846    11
CTC1_L_00278001-04
1 13539U 25146U   26070.40834491  .00000000  00000+0  00000-0 0  9996
2 13539  85.0000   0.0000 0000000   0.0000 270.0000 15.28598846    12
CTC1_L_00278002-01
1 13540U 22589RD  26070.40834491  .00000000  00000+0  00000-0 0  9996
2 13540  85.0000  12.0000 0000000   0.0000  12.0000 15.28598846    11
CTC1_L_00278002-02
1 13541U 26351XR  26070.40834491  .00000000  00000+0  00000-0 0  9998
2 13541  85.0000  12.0000 0000000   0.0000 102.0000 15.28598846    12
CTC1_L_00278002-03
1 13542U 24621LN  26070.40834491  .00000000  00000+0  00000-0 0  9997
2 13542  85.0000  12.0000 0000000   0.0000 192.0000 15.28598846    12
CTC1_L_00278002-04
1 13543U 25977OZ  26070.40834491  .00000000  00000+0  00000-0 0  9993
2 13543  85.0000  12.0000 0000000   0.0000 282.0000 15.28598846    13
CTC1_L_00278003-01
1 13544U 23345BR  26070.40834491  .00000000  00000+0  00000-0 0  9991
2 13544  85.0000  24.0000 0000000   0.0000  24.0000 15.28598846    11
CTC1_L_00278003-02
1 13545U 22176HY  26070.40834491  .00000000  00000+0  00000-0 0  9993
2 13545  85.0000  24.0000 0000000   0.0000 114.0000 15.28598846    12
CTC1_L_00278003-03
1 13546U 26102YE  26070.40834491  .00000000  00000+0  00000-0 0  9997
2 13546  85.0000  24.0000 0000000   0.0000 204.0000 15.28598846    13
CTC1_L_00278003-04
1 13547U 22288PQ  26070.40834491  .00000000  00000+0  00000-0 0  9999
2 13547  85.0000  24.0000 0000000   0.0000 294.0000 15.28598846    13
CTC1_L_00278004-01
1 13548U 26105FX  26070.40834491  .00000000  00000+0  00000-0 0  9992
2 13548  85.0000  36.0000 0000000   0.0000  36.0000 15.28598846    11
CTC1_L_00278004-02
1 13549U 25986SQ  26070.40834491  .00000000  00000+0  00000-0 0  9999
2 13549  85.0000  36.0000 0000000   0.0000 126.0000 15.28598846    12
CTC1_L_00278004-03
1 13550U 25333GD  26070.40834491  .00000000  00000+0  00000-0 0  9997
2 13550  85.0000  36.0000 0000000   0.0000 216.0000 15.28598846    14
CTC1_L_00278004-04
1 13551U 24844JC  26070.40834491  .00000000  00000+0  00000-0 0  9994
2 13551  85.0000  36.0000 0000000   0.0000 306.0000 15.28598846    15
CTC1_L_00278005-01
1 13552U 22152ZV  26070.40834491  .00000000  00000+0  00000-0 0  9995
2 13552  85.0000  48.0000 0000000   0.0000  48.0000 15.28598846    12
CTC1_L_00278005-02
1 13553U 22703ZM  26070.40834491  .00000000  00000+0  00000-0 0  9998
2 13553  85.0000  48.0000 0000000   0.0000 138.0000 15.28598846    13
CTC1_L_00278005-03
1 13554U 25071UJ  26070.40834491  .00000000  00000+0  00000-0 0  9990
2 13554  85.0000  48.0000 0000000   0.0000 228.0000 15.28598846    14
CTC1_L_00278005-04
1 13555U 26652WE  26070.40834491  .00000000  00000+0  00000-0 0  9997
2 13555  85.0000  48.0000 0000000   0.0000 318.0000 15.28598846    15
CTC1_L_00278006-01
1 13556U 23393GQ  26070.40834491  .00000000  00000+0  00000-0 0  9997
2 13556  85.0000  60.0000 0000000   0.0000  60.0000 15.28598846    14
CTC1_L_00278006-02
1 13557U 26343AD  26070.40834491  .00000000  00000+0  00000-0 0  9996
2 13557  85.0000  60.0000 0000000   0.0000 150.0000 15.28598846    15
CTC1_L_00278006-03
1 13558U 24487JU  26070.40834491  .00000000  00000+0  00000-0 0  9994
2 13558  85.0000  60.0000 0000000   0.0000 240.0000 15.28598846    16
CTC1_L_00278006-04
1 13559U 26600WV  26070.40834491  .00000000  00000+0  00000-0 0  9994
2 13559  85.0000  60.0000 0000000   0.0000 330.0000 15.28598846    17
CTC1_L_00278007-01
1 13560U 26014BU  26070.40834491  .00000000  00000+0  00000-0 0  9995
2 13560  85.0000  72.0000 0000000   0.0000  72.0000 15.28598846    15
CTC1_L_00278007-02
1 13561U 24397CI  26070.40834491  .00000000  00000+0  00000-0 0  9998
2 13561  85.0000  72.0000 0000000   0.0000 162.0000 15.28598846    16
CTC1_L_00278007-03
1 13562U 26463KI  26070.40834491  .00000000  00000+0  00000-0 0  9995
2 13562  85.0000  72.0000 0000000   0.0000 252.0000 15.28598846    17
CTC1_L_00278007-04
1 13563U 22697PO  26070.40834491  .00000000  00000+0  00000-0 0  9991
2 13563  85.0000  72.0000 0000000   0.0000 342.0000 15.28598846    18
CTC1_L_00278008-01
1 13564U 22102HJ  26070.40834491  .00000000  00000+0  00000-0 0  9993
2 13564  85.0000  84.0000 0000000   0.0000  84.0000 15.28598846    15
CTC1_L_00278008-02
1 13565U 24982EZ  26070.40834491  .00000000  00000+0  00000-0 0  9992
2 13565  85.0000  84.0000 0000000   0.0000 174.0000 15.28598846    16
CTC1_L_00278008-03
1 13566U 23265PT  26070.40834491  .00000000  00000+0  00000-0 0  9996
2 13566  85.0000  84.0000 0000000   0.0000 264.0000 15.28598846    17
CTC1_L_00278008-04
1 13567U 23995AW  26070.40834491  .00000000  00000+0  00000-0 0  9997
2 13567  85.0000  84.0000 0000000   0.0000 354.0000 15.28598846    18
CTC1_L_00278009-01
1 13568U 22724OZ  26070.40834491  .00000000  00000+0  00000-0 0  9997
2 13568  85.0000  96.0000 0000000   0.0000  96.0000 15.28598846    15
CTC1_L_00278009-02
1 13569U 23739KP  26070.40834491  .00000000  00000+0  00000-0 0  9995
2 13569  85.0000  96.0000 0000000   0.0000 186.0000 15.28598846    16
CTC1_L_00278009-03
1 13570U 24818RI  26070.40834491  .00000000  00000+0  00000-0 0  9996
2 13570  85.0000  96.0000 0000000   0.0000 276.0000 15.28598846    18
CTC1_L_00278009-04
1 13571U 23772PJ  26070.40834491  .00000000  00000+0  00000-0 0  9995
2 13571  85.0000  96.0000 0000000   0.0000   6.0000 15.28598846    10
CTC1_L_00278010-01
1 13572U 23687ZA  26070.40834491  .00000000  00000+0  00000-0 0  9991
2 13572  85.0000 108.0000 0000000   0.0000 108.0000 15.28598846    18
CTC1_L_00278010-02
1 13573U 26960X   26070.40834491  .00000000  00000+0  00000-0 0  9999
2 13573  85.0000 108.0000 0000000   0.0000 198.0000 15.28598846    18
CTC1_L_00278010-03
1 13574U 24053NN  26070.40834491  .00000000  00000+0  00000-0 0  9991
2 13574  85.0000 108.0000 0000000   0.0000 288.0000 15.28598846    19
CTC1_L_00278010-04
1 13575U 24337FH  26070.40834491  .00000000  00000+0  00000-0 0  9997
2 13575  85.0000 108.0000 0000000   0.0000  18.0000 15.28598846    11
CTC1_L_00278011-01
1 13576U 22412YD  26070.40834491  .00000000  00000+0  00000-0 0  9990
2 13576  85.0000 120.0000 0000000   0.0000 120.0000 15.28598846    10
CTC1_L_00278011-02
1 13577U 22750ZZ  26070.40834491  .00000000  00000+0  00000-0 0  9996
2 13577  85.0000 120.0000 0000000   0.0000 210.0000 15.28598846    11
CTC1_L_00278011-03
1 13578U 26519JD  26070.40834491  .00000000  00000+0  00000-0 0  9994
2 13578  85.0000 120.0000 0000000   0.0000 300.0000 15.28598846    12
CTC1_L_00278011-04
1 13579U 24543YO  26070.40834491  .00000000  00000+0  00000-0 0  9990
2 13579  85.0000 120.0000 0000000   0.0000  30.0000 15.28598846    13
CTC1_L_00278012-01
1 13580U 22648HJ  26070.40834491  .00000000  00000+0  00000-0 0  9996
2 13580  85.0000 132.0000 0000000   0.0000 132.0000 15.28598846    11
CTC1_L_00278012-02
1 13581U 22659AC  26070.40834491  .00000000  00000+0  00000-0 0  9999
2 13581  85.0000 132.0000 0000000   0.0000 222.0000 15.28598846    12
CTC1_L_00278012-03
1 13582U 26183TH  26070.40834491  .00000000  00000+0  00000-0 0  9996
2 13582  85.0000 132.0000 0000000   0.0000 312.0000 15.28598846    13
CTC1_L_00278012-04
1 13583U 23539BU  26070.40834491  .00000000  00000+0  00000-0 0  9999
2 13583  85.0000 132.0000 0000000   0.0000  42.0000 15.28598846    14
CTC1_L_00278013-01
1 13584U 26788EM  26070.40834491  .00000000  00000+0  00000-0 0  9999
2 13584  85.0000 144.0000 0000000   0.0000 144.0000 15.28598846    11
CTC1_L_00278013-02
1 13585U 22032S   26070.40834491  .00000000  00000+0  00000-0 0  9998
2 13585  85.0000 144.0000 0000000   0.0000 234.0000 15.28598846    12
CTC1_L_00278013-03
1 13586U 23475YV  26070.40834491  .00000000  00000+0  00000-0 0  9991
2 13586  85.0000 144.0000 0000000   0.0000 324.0000 15.28598846    13
CTC1_L_00278013-04
1 13587U 23171JR  26070.40834491  .00000000  00000+0  00000-0 0  9995
2 13587  85.0000 144.0000 0000000   0.0000  54.0000 15.28598846    14
CTC1_L_00278014-01
1 13588U 25398IO  26070.40834491  .00000000  00000+0  00000-0 0  9999
2 13588  85.0000 156.0000 0000000   0.0000 156.0000 15.28598846    11
CTC1_L_00278014-02
1 13589U 24654QH  26070.40834491  .00000000  00000+0  00000-0 0  9994
2 13589  85.0000 156.0000 0000000   0.0000 246.0000 15.28598846    12
CTC1_L_00278014-03
1 13590U 25927WI  26070.40834491  .00000000  00000+0  00000-0 0  9990
2 13590  85.0000 156.0000 0000000   0.0000 336.0000 15.28598846    14
CTC1_L_00278014-04
1 13591U 26362JT  26070.40834491  .00000000  00000+0  00000-0 0  9995
2 13591  85.0000 156.0000 0000000   0.0000  66.0000 15.28598846    15
CTC1_L_00278015-01
1 13592U 23033RE  26070.40834491  .00000000  00000+0  00000-0 0  9998
2 13592  85.0000 168.0000 0000000   0.0000 168.0000 15.28598846    12
CTC1_L_00278015-02
1 13593U 25323EG  26070.40834491  .00000000  00000+0  00000-0 0  9993
2 13593  85.0000 168.0000 0000000   0.0000 258.0000 15.28598846    13
CTC1_L_00278015-03
1 13594U 22345UT  26070.40834491  .00000000  00000+0  00000-0 0  9995
2 13594  85.0000 168.0000 0000000   0.0000 348.0000 15.28598846    14
CTC1_L_00278015-04
1 13595U 26838TW  26070.40834491  .00000000  00000+0  00000-0 0  9997
2 13595  85.0000 168.0000 0000000   0.0000  78.0000 15.28598846    15
CTC1_L_00278016-01
1 13596U 26954P   26070.40834491  .00000000  00000+0  00000-0 0  9997
2 13596  85.0000 180.0000 0000000   0.0000 180.0000 15.28598846    14
CTC1_L_00278016-02
1 13597U 25381MY  26070.40834491  .00000000  00000+0  00000-0 0  9991
2 13597  85.0000 180.0000 0000000   0.0000 270.0000 15.28598846    15
